0 CSS (TIANHE-1)

1 48274U 21035A   26149.16007675  .00022574  00000-0  27460-3 0  9992

2 48274  41.4692  77.7217 0010786 301.3655  58.6128 15.59942331290192

0 ISS (ZARYA)

1 25544U 98067A   26148.77610718  .00012346  00000-0  22817-3 0  9997

2 25544  51.6335  36.1959 0007359 108.4856 251.6933 15.49449908568746

0 STARLINK-1008

1 44714U 19074B   26149.21152226  .00063153  00000-0  12071-2 0  9995

2 44714  53.1522 159.4159 0003074  49.3218 310.8056 15.47524744361270

0 STARLINK-1012

1 44718U 19074F   26149.21114007  .00064641  00000-0  12255-2 0  9991

2 44718  53.1562 159.7170 0002856  44.9929 315.1310 15.47749853361261

0 STARLINK-1017

1 44723U 19074L   26149.21325852  .00045384  00000-0  15190-2 0  9993

2 44723  53.0461 157.9667 0005513   7.1300 352.9777 15.30527509361273

0 STARLINK-1020

1 44725U 19074N   26148.42847970  .00073106  00000-0  11594-2 0  9994

2 44725  53.1582 187.8877 0004267  25.5786 334.5435 15.52741520360789

0 STARLINK-1036

1 44741U 19074AE  26149.04240350  .00062153  00000-0  55207-3 0  9990

2 44741  53.0406 155.2343 0003111 344.9891  15.1031 15.67963016361293

0 STARLINK-1039

1 44744U 19074AH  26148.44046020  .00031539  00000-0  11560-2 0  9991

2 44744  53.0597 206.7443 0003450  11.9047 348.2032 15.27741478360528

0 STARLINK-1042

1 44747U 19074AL  26149.02735817  .00033097  00000-0  51540-3 0  9992

2 44747  53.0428  68.1548 0003534  73.7730 286.3668 15.53601927362542

0 STARLINK-1043

1 44748U 19074AM  26149.03655571  .00043897  00000-0  50334-3 0  9991

2 44748  53.0478 165.0465 0001111  65.8214 294.2915 15.61670211361162

0 STARLINK-1046

1 44751U 19074AQ  26148.37725309  .00036585  00000-0  56685-3 0  9999

2 44751  53.0478 189.2650 0007392  28.7233 331.4183 15.53670420360765

0 STARLINK-1047

1 44752U 19074AR  26149.18315705  .00010553  00000-0  32495-3 0  9995

2 44752  53.0674 129.4688 0003804  93.6103 266.5333 15.34209207361690

0 STARLINK-1048

1 44753U 19074AS  26149.21530360  .00057883  00000-0  55242-3 0  9998

2 44753  53.0439 136.2548 0007269  25.9325 334.2053 15.66190200361570

0 STARLINK-1063

1 44768U 19074BH  26149.15952741  .00067287  00000-0  12856-2 0  9990

2 44768  53.1557 200.6841 0002054  23.8562 336.2541 15.47511463360702

0 STARLINK-1067

1 44771U 19074BL  26148.36543612  .00079919  00000-0  57664-3 0  9991

2 44771  53.0422 172.8267 0006956 351.4462   8.6436 15.72831851360990

0 STARLINK-1068

1 44772U 19074BM  26149.20052111  .00084747  00000-0  58900-3 0  9994

2 44772  53.0410 142.3822 0002426  77.4236 282.7053 15.73710874361486

0 JILIN-01 GAOFEN 2A

1 44777U 19075A   26149.21505735  .00019437  00000-0  50874-3 0  9992

2 44777  97.4971 232.5695 0007463 142.8940 217.2823 15.38739906361969

0 NINGXIA-1 1

1 44779U 19076A   26149.15572308 -.00000092  00000-0  24850-4 0  9992

2 44779  45.0058 264.9004 0010231  67.4634 292.7282 14.02036693335183

0 NINGXIA-1 2

1 44780U 19076B   26149.21091641 -.00000159  00000-0 -18840-4 0  9994

2 44780  45.0085 264.9859 0006133  57.2283 302.9141 14.02053670335199

0 NINGXIA-1 3

1 44781U 19076C   26149.19532535 -.00000076  00000-0  35412-4 0  9995

2 44781  44.9997 263.2681 0009128  55.9768 304.1932 14.02049627335194

0 NINGXIA-1 4

1 44782U 19076D   26149.18233572  .00000068  00000-0  12877-3 0  9993

2 44782  45.0082 264.7564 0012208  32.1418 328.0158 14.02068347335151

0 NINGXIA-1 5

1 44783U 19076E   26149.16966388 -.00000042  00000-0  57056-4 0  9992

2 44783  45.0055 264.1859 0010099  56.2536 303.9259 14.02084901335100

0 CZ-6 R/B

1 44784U 19076F   26148.98191110 -.00000012  00000-0  57936-4 0  9999

2 44784  45.0073 339.7207 0087396  82.3560 278.7196 14.18056769338962

0 STARLINK-1143

1 45179U 20012B   26149.25003471  .00321745  00000-0  12579-2 0  9993

2 45179  53.0351 289.4305 0005489 321.9820 157.5347 15.85615654  5998

0 STARLINK-1202

1 45183U 20012F   26149.03520632  .00041899  00000-0  12694-2 0  9994

2 45183  53.1566  25.4356 0002548 135.8578 224.2628 15.33766231347265

0 STARLINK-1216

1 45185U 20012H   26148.88590611  .00034005  00000-0  10235-2 0  9992

2 45185  53.1581  26.0121 0003469 137.9486 222.1783 15.34072009347189

0 STARLINK-1225

1 45187U 20012K   26148.94949120  .00049036  00000-0  14713-2 0  9999

2 45187  53.1566  26.1725 0002226 134.7014 225.4170 15.34001756347230

0 STARLINK-1230

1 45189U 20012M   26149.02503657  .00047081  00000-0  14168-2 0  9994

2 45189  53.1572  25.8839 0002612 132.0236 228.0989 15.33927534344477

0 STARLINK-1234

1 45190U 20012N   26148.89241499  .00087642  00000-0  63086-3 0  9994

2 45190  53.0400 289.7962 0005216 204.5233 155.5537 15.72863798348461

0 STARLINK-1269

1 45197U 20012V   26148.95565382  .00053401  00000-0  16020-2 0  9999

2 45197  53.1567  26.0556 0002559  96.5370 263.5923 15.33969969347217

0 STARLINK-1154

1 45198U 20012W   26148.81352817  .00053065  00000-0  58028-3 0  9993

2 45198  53.0434 343.8177 0000289  28.6946 331.4084 15.62810685347745

0 STARLINK-1199

1 45201U 20012Z   26148.99164850  .00047661  00000-0  14348-2 0  9996

2 45201  53.1582  10.1522 0001973 158.0919 202.0168 15.33909856347464

0 STARLINK-1209

1 45206U 20012AE  26148.85262568  .00071342  00000-0  71982-3 0  9992

2 45206  53.0390 303.9871 0008407 196.0918 163.9830 15.64697155347411

0 STARLINK-1231

1 45212U 20012AL  26148.99595885  .00037233  00000-0  13892-2 0  9991

2 45212  53.0419   5.0603 0003927  60.1406 299.9982 15.27072473347471

0 STARLINK-1271

1 45217U 20012AR  26148.99040641  .00037854  00000-0  11364-2 0  9992

2 45217  53.1575  10.2942 0001530 161.0001 199.1058 15.34104079347464

0 STARLINK-1191

1 45222U 20012AW  26148.93084311  .00063331  00000-0  16672-2 0  9990

2 45222  53.1564 343.8560 0003616 155.4238 204.6939 15.37970710347832

0 STARLINK-1212

1 45223U 20012AX  26148.94265957  .00066717  00000-0  64185-3 0  9993

2 45223  53.0404 319.2453 0002787 113.4292 246.7016 15.65957578348163

0 STARLINK-1215

1 45225U 20012AZ  26148.92510694  .00056995  00000-0  16970-2 0  9999

2 45225  53.1576 344.8734 0001388 203.1639 156.9301 15.34180071347777

0 STARLINK-1221

1 45227U 20012BB  26148.56622627  .00020825  00000-0  45058-3 0  9994

2 45227  53.0652 250.3226 0001761 265.5508  94.5296 15.44459155349047

0 STARLINK-1222

1 45228U 20012BC  26148.85968416  .00047355  00000-0  71312-3 0  9995

2 45228  53.0545 317.0128 0001076  22.3278 337.7779 15.54362744348071

0 STARLINK-1226

1 45229U 20012BD  26148.94551149  .00069445  00000-0  15594-2 0  9990

2 45229  53.1572 341.4393 0002543 187.0079 173.0892 15.42755562347769

0 STARLINK-1227

1 45230U 20012BE  26148.95607767  .00070485  00000-0  15763-2 0  9995

2 45230  53.1537 341.5079 0003114 183.8308 176.2675 15.42869751347881

0 STARLINK-1246

1 45235U 20012BK  26148.89710716  .00050479  00000-0  15114-2 0  9993

2 45235  53.1572  25.9576 0002888 150.0580 210.0588 15.34056152347261

0 STARLINK-1270

1 45237U 20012BM  26148.92443682  .00113567  00000-0  13535-2 0  9997

2 45237  53.0426 320.3465 0001642 175.2254 184.8774 15.60248931348143

0 JCSAT 17

1 45245U 20013A   26148.96151230 -.00000313  00000-0  00000+0 0  9991

2 45245   5.3926 356.6961 0003248  59.6857 312.2727  1.00271958 23046

0 GEO-KOMPSAT-2B

1 45246U 20013B   26148.53225544 -.00000335  00000-0  00000+0 0  9999

2 45246   0.0156 276.4910 0000597  71.9055 217.5465  1.00270262 23085

0 ARIANE 5 DEB (SYLDA)

1 45247U 20013C   26149.01002917  .00061652  00000-0  87511-2 0  9994

2 45247   5.4709 182.2500 6274332  47.4925 350.8111  3.65532264 63447

0 ARIANE 5 R/B

1 45248U 20013D   26148.93873249  .00002056  00000-0  98629-3 0  9995

2 45248   5.8303  38.4845 7139834 338.4034   2.7345  2.44269228 54049